     2.100          NAVIGATION                              RINEX VERSION / TYPE
fic2rin                                 03/12/2015 00:20:31 PGM / RUN BY / DATE
                                                            END OF HEADER
29 15  3 11 18  0  0.0  .597194302827D-03  .250111042988D-11  .000000000000D+00
     .126000000000D+03 -.178125000000D+01  .423303346569D-08  .638896915341D+00
    -.145286321640D-06  .133161107078D-02  .823847949505D-05  .515354493713D+04
     .324000000000D+06  .223517417908D-07 -.154966679533D+01 -.447034835815D-07
     .972149219311D+00  .227625000000D+03 -.824209005533D+00 -.795247410961D-08
     .300369654459D-09  .100000000000D+01  .183500000000D+04  .000000000000D+00
     .340000000000D+01  .000000000000D+00 -.977888703346D-08  .126000000000D+03
     .316806000000D+06  .400000000000D+01
30 15  3 11 18  0  0.0 -.806008465588D-04  .238742359215D-11  .000000000000D+00
     .520000000000D+02  .281250000000D+00  .492199073496D-08  .146079850554D+01
     .109896063805D-06  .107739528175D-02  .363215804100D-05  .515376486778D+04
     .324000000000D+06  .931322574615D-08  .266133236722D+01 -.707805156708D-07
     .956754822644D+00  .304093750000D+03  .287591997903D+01 -.853606984729D-08
    -.190722230061D-09  .100000000000D+01  .183500000000D+04  .000000000000D+00
     .240000000000D+01  .000000000000D+00  .325962901115D-08  .520000000000D+02
     .316806000000D+06  .400000000000D+01
31 15  3 11 18  0  0.0  .321399420500D-03 -.909494701773D-12  .000000000000D+00
     .340000000000D+02 -.240625000000D+01  .444625663301D-08  .117577706434D+01
    -.117346644402D-06  .824509083759D-02  .349245965481D-05  .515374097252D+04
     .324000000000D+06  .193715095520D-06  .261833716976D+01  .149011611938D-07
     .975917232539D+00  .314187500000D+03 -.533869539661D+00 -.817962642856D-08
    -.240724312848D-09  .100000000000D+01  .183500000000D+04  .000000000000D+00
     .240000000000D+01  .000000000000D+00 -.135041773319D-07  .340000000000D+02
     .316806000000D+06  .400000000000D+01
32 15  3 11 18  0  0.0 -.203809700906D-03  .932232069317D-11  .000000000000D+00
     .460000000000D+02  .546875000000D+01  .480377152494D-08  .181126432140D+01
     .204890966415D-06  .113171350677D-01  .101998448372D-04  .515356801605D+04
     .324000000000D+06  .484287738800D-07  .573710832033D+00  .238418579102D-06
     .947400466552D+00  .174250000000D+03  .287500004786D-01 -.810890919719D-08
    -.312155859687D-09  .100000000000D+01  .183500000000D+04  .000000000000D+00
     .240000000000D+01  .000000000000D+00 -.372529029846D-08  .460000000000D+02
     .316806000000D+06  .400000000000D+01
24 15  3 11 17 59 44.0 -.448063947260D-04 -.568434188608D-12  .000000000000D+00
     .500000000000D+01  .125625000000D+02  .494592030315D-08  .211841115800D+01
     .668689608574D-06  .315548211802D-02  .399351119995D-05  .515368302345D+04
     .323984000000D+06 -.912696123123D-07  .257138578685D+01  .931322574615D-07
     .954216073147D+00  .299281250000D+03  .317105766991D+00 -.842963684250D-08
    -.107147320259D-09  .100000000000D+01  .183500000000D+04  .000000000000D+00
     .240000000000D+01  .000000000000D+00  .232830643654D-08  .500000000000D+01
     .318126000000D+06  .400000000000D+01
 3 15  3 11 17 59 44.0  .250336714089D-03  .175077730091D-10  .000000000000D+00
     .240000000000D+02 -.375000000000D+01  .457911931013D-08 -.217154956379D+01
    -.435858964920D-06  .928914872929D-03  .102836638689D-04  .515373325920D+04
     .323984000000D+06  .670552253723D-07  .490903037339D+00 -.502914190292D-07
     .959725817621D+00  .183187500000D+03 -.288780419154D+01 -.797961809741D-08
    -.226080845746D-09  .100000000000D+01  .183500000000D+04  .000000000000D+00
     .240000000000D+01  .000000000000D+00  .139698386192D-08  .240000000000D+02
     .318306000000D+06  .400000000000D+01
12 15  3 11 17 59 44.0  .275808852166D-03  .306954461848D-11  .000000000000D+00
     .300000000000D+01 -.507812500000D+02  .377051419991D-08  .823490534280D+00
    -.263191759586D-05  .539302139077D-02  .816769897938D-05  .515372534561D+04
     .323984000000D+06 -.614672899246D-07 -.260533584667D+01  .856816768646D-07
     .989575591635D+00  .236750000000D+03  .529016450836D+00 -.777389524251D-08
    -.216437586923D-09  .100000000000D+01  .183500000000D+04  .000000000000D+00
     .240000000000D+01  .000000000000D+00 -.125728547573D-07  .300000000000D+01
     .323196000000D+06  .400000000000D+01
26 15  3 11 17 59 44.0 -.249268487096D-05  .466116034659D-11  .000000000000D+00
     .440000000000D+02  .220625000000D+02  .425482008748D-08 -.284073084368D+01
     .132992863655D-05  .226073355880D-01  .429339706898D-05  .515377249908D+04
     .323984000000D+06 -.189989805222D-06  .256288778204D+01  .298023223877D-06
     .976646362613D+00  .304187500000D+03 -.564138425076D+00 -.778318134360D-08
    -.978612191697D-10  .100000000000D+01  .183500000000D+04  .000000000000D+00
     .240000000000D+01  .630000000000D+02 -.419095158577D-08  .440000000000D+02
     .323196000000D+06  .400000000000D+01
 3 15  3 11 19 59 44.0  .250462908298D-03  .175077730091D-10  .000000000000D+00
     .250000000000D+02 -.937500000000D+00  .451125934063D-08 -.112264299171D+01
    -.171363353729D-06  .929007655941D-03  .951439142227D-05  .515373107910D+04
     .331184000000D+06  .447034835815D-07  .490845234520D+00  .372529029846D-07
     .959724514161D+00  .190937500000D+03 -.288656520087D+01 -.797068915405D-08
    -.153934983439D-09  .100000000000D+01  .183500000000D+04  .000000000000D+00
     .240000000000D+01  .000000000000D+00  .139698386192D-08  .250000000000D+02
     .324006000000D+06  .400000000000D+01
12 15  3 11 19 59 44.0  .275830738246D-03  .306954461848D-11  .000000000000D+00
     .400000000000D+01 -.605625000000D+02  .375194199773D-08  .187339493938D+01
    -.319257378578D-05  .539291184396D-02  .844523310661D-05  .515372768593D+04
     .331184000000D+06 -.894069671631D-07 -.260539175501D+01  .149011611938D-07
     .989573904891D+00  .233062500000D+03  .529255697921D+00 -.775853745994D-08
    -.233581158164D-09  .100000000000D+01  .183500000000D+04  .000000000000D+00
     .240000000000D+01  .000000000000D+00 -.125728547573D-07  .400000000000D+01
     .324006000000D+06  .400000000000D+01
24 15  3 11 19 59 44.0 -.448110513389D-04 -.568434188608D-12  .000000000000D+00
     .600000000000D+01  .176875000000D+02  .495806366611D-08 -.311443368185D+01
     .867992639542D-06  .315587664954D-02  .411458313465D-05  .515368191338D+04
     .331184000000D+06 -.113621354103D-06  .257132514304D+01 -.372529029846D-08
     .954215496757D+00  .296718750000D+03  .316944352999D+00 -.840785022071D-08
    -.817891211309D-10  .100000000000D+01  .183500000000D+04  .000000000000D+00
     .240000000000D+01  .000000000000D+00  .232830643654D-08  .600000000000D+01
     .324006000000D+06  .400000000000D+01
26 15  3 11 19 59 44.0 -.245869159698D-05  .466116034659D-11  .000000000000D+00
     .450000000000D+02  .191875000000D+02  .448982987658D-08 -.179063988288D+01
     .987201929092D-06  .226079464192D-01  .496767461300D-05  .515377086258D+04
     .331184000000D+06 -.555068254471D-06  .256282889812D+01 -.217929482460D-06
     .976643631345D+00  .298187500000D+03 -.564108958980D+00 -.832784688825D-08
     .535736601294D-10  .100000000000D+01  .183500000000D+04  .000000000000D+00
     .240000000000D+01  .630000000000D+02 -.419095158577D-08  .450000000000D+02
     .324006000000D+06  .400000000000D+01
 1 15  3 11 20  0  0.0 -.807829201221D-05  .454747350886D-12  .000000000000D+00
     .540000000000D+02 -.176562500000D+02  .467876631797D-08  .295375377911D+01
    -.812113285065D-06  .394875719212D-02  .612065196037D-05  .515366287804D+04
     .331200000000D+06 -.130385160446D-07 -.549315349121D+00 -.409781932831D-07
     .962062285047D+00  .263062500000D+03  .392200020362D+00 -.813462455405D-08
     .889322758148D-10  .100000000000D+01  .183500000000D+04  .000000000000D+00
     .240000000000D+01  .000000000000D+00  .558793544769D-08  .540000000000D+02
     .324006000000D+06  .400000000000D+01
 2 15  3 11 20  0  0.0  .552950426936D-03  .227373675443D-11  .000000000000D+00
     .950000000000D+02 -.231875000000D+02  .505306762341D-08 -.278865451641D+01
    -.121444463730D-05  .144871543162D-01  .616535544395D-05  .515377826500D+04
     .331200000000D+06  .707805156708D-07 -.585195953178D+00 -.214204192162D-06
     .940648913826D+00  .248093750000D+03 -.230405470154D+01 -.815069665209D-08
     .174292974288D-09  .100000000000D+01  .183500000000D+04  .000000000000D+00
     .240000000000D+01  .000000000000D+00 -.204890966415D-07  .950000000000D+02
     .324006000000D+06  .400000000000D+01
 4 15  3 11 20  0  0.0 -.883964821696D-05 -.795807864051D-12  .000000000000D+00
     .690000000000D+02 -.198437500000D+02  .510521265260D-08  .273519281158D+01
    -.104866921902D-05  .110810721526D-01  .566989183426D-05  .515371508026D+04
     .331200000000D+06  .819563865662D-07 -.569827470641D+00 -.931322574615D-07
     .939702184928D+00  .257843750000D+03  .105301002072D+01 -.822034241026D-08
     .732173355102D-10  .100000000000D+01  .183500000000D+04  .000000000000D+00
     .240000000000D+01  .000000000000D+00 -.651925802231D-08  .690000000000D+02
     .324006000000D+06  .400000000000D+01
 5 15  3 11 20  0  0.0 -.268211122602D-03  .500222085975D-11  .000000000000D+00
     .650000000000D+02 -.937500000000D+01  .482198656938D-08 -.415703910296D+00
    -.333413481712D-06  .403498380911D-02  .970624387264D-05  .515378751373D+04
     .331200000000D+06  .596046447754D-07  .484823822744D+00 -.186264514923D-07
     .946985329900D+00  .182687500000D+03  .409802049649D+00 -.819141263379D-08
    -.191079387795D-09  .100000000000D+01  .183500000000D+04  .000000000000D+00
     .240000000000D+01  .000000000000D+00 -.107102096081D-07  .650000000000D+02
     .324006000000D+06  .400000000000D+01
